ONEWEB-0638             
1 55802U 23029G   24259.85145201 -.00000278  00000+0 -78342-3 0  9999
2 55802  87.8948  56.9007 0001070  95.7202 264.4050 13.14500233 75405
ONEWEB-0639             
1 55803U 23029H   24260.19963207  .00000154  00000+0  35231-3 0  9994
2 55803  87.9100  72.0751 0002345 128.2846 231.8498 13.19723951 75317
ONEWEB-0640             
1 55804U 23029J   24259.86096879 -.00000789  00000+0 -21636-2 0  9998
2 55804  87.8948  56.8927 0001017 120.2296 239.8935 13.14504042 75427
ONEWEB-0641             
1 55805U 23029K   24260.19488418  .00000182  00000+0  42341-3 0  9993
2 55805  87.9096  72.0557 0001814  99.5141 260.6197 13.19727418 75324
ONEWEB-0642             
1 55806U 23029L   24259.88688918  .00000023  00000+0  25417-4 0  9995
2 55806  87.9100  72.1433 0002352 117.3843 242.7529 13.19725847 74582
ONEWEB-0644             
1 55808U 23029N   24260.03378100  .00000071  00000+0  14491-3 0  9997
2 55808  87.9103  72.1120 0002067 107.9431 252.1927 13.19724149 75291
